*******************************************************************************
Ephemeris / WWW_USER Tue Mar 27 21:54:42 2018 Pasadena, USA      / Horizons    
*******************************************************************************
Target body name: SpaceX Roadster (spacecraft) (-143205) {source: tesla_s10}
Center body name: Solar System Barycenter (0)     {source: DE431mx}
Center-site name: BODY CENTER
*******************************************************************************
Start time      : A.D. 2018-Feb-08 00:00:00.0000 TDB
Stop  time      : A.D. 2019-Feb-08 00:00:00.0000 TDB
Step-size       : 7200 minutes
*******************************************************************************
Center geodetic : 0.00000000,0.00000000,0.0000000 {E-lon(deg),Lat(deg),Alt(km)}
Center cylindric: 0.00000000,0.00000000,0.0000000 {E-lon(deg),Dxy(km),Dz(km)}
Center radii    : (undefined)                                                  
Output units    : AU-D                                                         
Output type     : GEOMETRIC cartesian states
Output format   : 2 (position and velocity)
Reference frame : ICRF/J2000.0                                                 
Coordinate systm: Ecliptic and Mean Equinox of Reference Epoch                 
*******************************************************************************
JDTDB
   X     Y     Z
   VX    VY    VZ
*******************************************************************************
$$SOE
2458367.500000000 = A.D. 2018-Sep-06 00:00:00.0000 TDB 
   5.079678081396685E-01 -1.517589336600376E+00 -1.458332451752857E-02
   1.184276101320455E-02  2.110255774880065E-03  1.809480717078745E-04
2458372.500000000 = A.D. 2018-Sep-11 00:00:00.0000 TDB 
   5.667139910678690E-01 -1.505690044856196E+00 -1.366599366015040E-02
   1.165274209999241E-02  2.647362305618928E-03  1.859173174116098E-04
2458377.500000000 = A.D. 2018-Sep-16 00:00:00.0000 TDB 
   6.244660873241273E-01 -1.491136685122375E+00 -1.272481352241821E-02
   1.144523595659822E-02  3.171886017269932E-03  1.904892299800407E-04
2458382.500000000 = A.D. 2018-Sep-21 00:00:00.0000 TDB 
   6.811382525337176E-01 -1.473992123607771E+00 -1.176174972078435E-02
   1.122086895878144E-02  3.683846371378706E-03  1.946721006509265E-04
2458387.500000000 = A.D. 2018-Sep-26 00:00:00.0000 TDB 
   7.366476227664496E-01 -1.454319127764383E+00 -1.077872833929224E-02
   1.098020761563684E-02  4.183262793031761E-03  1.984734518236226E-04
2458392.500000000 = A.D. 2018-Oct-01 00:00:00.0000 TDB 
   7.909140255565581E-01 -1.432180375361434E+00 -9.777639762107512E-03
   1.072376266098712E-02  4.670151181512001E-03  2.019000420010255E-04
2458397.500000000 = A.D. 2018-Oct-06 00:00:00.0000 TDB 
   8.438597106466362E-01 -1.407638480058303E+00 -8.760342477934308E-03
   1.045199285474197E-02  5.144520787873817E-03  2.049578719508591E-04
2458402.500000000 = A.D. 2018-Oct-11 00:00:00.0000 TDB 
   8.954090990531242E-01 -1.380756031817800E+00 -7.728666852163478E-03
   1.016530851345700E-02  5.606371390449298E-03  2.076521913469112E-04
2458407.500000000 = A.D. 2018-Oct-16 00:00:00.0000 TDB 
   9.454885491500773E-01 -1.351595650825048E+00 -6.684418865761904E-03
   9.864074790601226E-03  6.055690707633560E-03  2.099875053561887E-04
2458412.500000000 = A.D. 2018-Oct-21 00:00:00.0000 TDB 
   9.940261385731952E-01 -1.320220053861918E+00 -5.629383822186816E-03
   9.548614728008999E-03  6.492451994502318E-03  2.119675807852088E-04
2458417.500000000 = A.D. 2018-Oct-26 00:00:00.0000 TDB 
   1.040951460854539E+00 -1.286692132338631E+00 -4.565330025341166E-03
   9.219212100449355E-03  6.916611775885663E-03  2.135954514749081E-04
2458422.500000000 = A.D. 2018-Oct-31 00:00:00.0000 TDB 
   1.086195435809645E+00 -1.251075041407912E+00 -3.494012432930661E-03
   8.876114075628059E-03  7.328107673638351E-03  2.148734226900628E-04
2458427.500000000 = A.D. 2018-Nov-05 00:00:00.0000 TDB 
   1.129690132808557E+00 -1.213432299785969E+00 -2.417176291204149E-03
   8.519533711504188E-03  7.726856290835485E-03  2.158030741082017E-04
2458432.500000000 = A.D. 2018-Nov-10 00:00:00.0000 TDB 
   1.171368606174680E+00 -1.173827900079125E+00 -1.336560759114622E-03
   8.149652314127516E-03  8.112751120171366E-03  2.163852610009394E-04
2458437.500000000 = A.D. 2018-Nov-15 00:00:00.0000 TDB 
   1.211164742077489E+00 -1.132326429571165E+00 -2.539025314445967E-04
   7.766621681950464E-03  8.485660446194193E-03  2.166201135021005E-04
2458442.500000000 = A.D. 2018-Nov-20 00:00:00.0000 TDB 
   1.249013116421395E+00 -1.088993201579826E+00  8.290605304580447E-04
   7.370566264598087E-03  8.845425210114099E-03  2.165070343809809E-04
2458447.500000000 = A.D. 2018-Nov-25 00:00:00.0000 TDB 
   1.284848863370292E+00 -1.043894397648037E+00  1.910585753856894E-03
   6.961585262597068E-03  9.191856806161941E-03  2.160446956434295E-04
2458452.500000000 = A.D. 2018-Nov-30 00:00:00.0000 TDB 
   1.318607554275817E+00 -9.970972209820050E-01  2.988921989496648E-03
   6.539754693468024E-03  9.524734782339124E-03  2.152310337389150E-04
2458457.500000000 = A.D. 2018-Dec-05 00:00:00.0000 TDB 
   1.350225086908628E+00 -9.486700616741545E-01  4.062305918206244E-03
   6.105129451688883E-03  9.843804421971726E-03  2.140632429977173E-04
2458462.500000000 = A.D. 2018-Dec-10 00:00:00.0000 TDB 
   1.379637585037889E+00 -8.986826743629724E-01  5.128958319893818E-03
   5.657745393519557E-03  1.014877418362177E-02  2.125377671533907E-04
2458467.500000000 = A.D. 2018-Dec-15 00:00:00.0000 TDB 
   1.406781308569735E+00 -8.472063690954814E-01  6.187080295668218E-03
   5.197621482059853E-03  1.043931297611963E-02  2.106502891230189E-04
2458472.500000000 = A.D. 2018-Dec-20 00:00:00.0000 TDB 
   1.431592574643580E+00 -7.943142162780884E-01  7.234849435267955E-03
   4.724762032228192E-03  1.071504724400791E-02  2.083957194139769E-04
2458477.500000000 = A.D. 2018-Dec-25 00:00:00.0000 TDB 
   1.454007690291924E+00 -7.400812667255354E-01  8.270415923801459E-03
   4.239159098634175E-03  1.097555783888591E-02  2.057681834879387E-04
2458482.500000000 = A.D. 2018-Dec-30 00:00:00.0000 TDB 
   1.473962897493894E+00 -6.845847879367557E-01  9.291898583268390E-03
   3.740795053519174E-03  1.122037665356970E-02  2.027610083585933E-04
2458487.500000000 = A.D. 2019-Jan-04 00:00:00.0000 TDB 
   1.491394331703175E+00 -6.279045178386947E-01  1.029738084584182E-02
   3.229645408041099E-03  1.144898299717844E-02  1.993667087640948E-04
2458492.500000000 = A.D. 2019-Jan-09 00:00:00.0000 TDB 
   1.506237995215651E+00 -5.701229373460049E-01  1.128490665789699E-02
   2.705681937691674E-03  1.166079969034362E-02  1.955769733839077E-04
2458497.500000000 = A.D. 2019-Jan-14 00:00:00.0000 TDB 
   1.518429747067257E+00 -5.113255631848707E-01  1.225247631648727E-02
   2.168876181349117E-03  1.185518886133301E-02  1.913826517189836E-04
2458502.500000000 = A.D. 2019-Jan-19 00:00:00.0000 TDB 
   1.527905311524824E+00 -4.516012625193397E-01  1.319804224351009E-02
   1.619203393610675E-03  1.203144742632651E-02  1.867737424280655E-04
2458507.500000000 = A.D. 2019-Jan-24 00:00:00.0000 TDB 
   1.534600307659595E+00 -3.910425909944625E-01  1.411950470721113E-02
   1.056647041894319E-03  1.218880224073828E-02  1.817393841325943E-04
2458512.500000000 = A.D. 2019-Jan-29 00:00:00.0000 TDB 
   1.538450302984485E+00 -3.297461558629272E-01  1.501470750652847E-02
   4.812039536268988E-04  1.232640491354625E-02  1.762678499716055E-04
2458517.500000000 = A.D. 2019-Feb-03 00:00:00.0000 TDB 
   1.539390894701625E+00 -2.678130058866128E-01  1.588143364085401E-02
  -1.071097651522671E-04  1.244332628355839E-02  1.703465475163068E-04
2458522.500000000 = A.D. 2019-Feb-08 00:00:00.0000 TDB 
   1.537357822757421E+00 -2.053490496877020E-01  1.671740099663475E-02
  -7.082519006998808E-04  1.253855056552276E-02  1.639620259107219E-04
